58271,FLOCK 4Q-16,2023,93.72,-1.0,+,97.41,Active,0,LEO,USA,USA,Unknown,Unknown,Unknown,1 58271U 23174R   25274.95406316  .00036080  00000+0  10096-2 0  9998,2 58271  97.4066 354.1920 0008092  24.9317 335.2316 15.36534502105751,15.36534502,0.0008092,LEO
58272,TIGER-6,2023,93.12,-1.0,+,97.41,Active,0,LEO,USA,Rwanda,Unknown,Unknown,Unknown,1 58272U 23174S   25275.17354667  .00055838  00000+0  11164-2 0  9994,2 58272  97.4101 357.5654 0004088   5.1149 355.0141 15.46603568105989,15.46603568,0.0004088,LEO
58273,FLOCK 4Q-11,2023,93.7,-1.0,+,97.41,Active,0,LEO,USA,USA,Unknown,Unknown,Unknown,1 58273U 23174T   25275.12455891  .00034680  00000+0  96270-3 0  9995,2 58273  97.4099 354.6875 0007447  21.5605 338.5952 15.36797484105784,15.36797484,0.0007447,LEO
58274,FLOCK 4Q-36,2023,93.48,-1.0,+,97.41,Active,0,LEO,USA,USA,Unknown,Unknown,Unknown,1 58274U 23174U   25274.75542555  .00043003  00000+0  10602-2 0  9991,2 58274  97.4094 355.8076 0006683  15.2098 344.9348 15.40410317105820,15.40410317,0.0006683,LEO
58275,FLOCK 4Q-12,2023,93.47,-1.0,+,97.41,Active,0,LEO,USA,USA,Unknown,Unknown,Unknown,1 58275U 23174V   25275.13606259  .00043548  00000+0  10651-2 0  9995,2 58275  97.4066 356.1646 0006338  13.2163 346.9248 15.40650499105902,15.40650499,0.0006338,LEO
58276,GENMAT-1,2023,94.24,-1.0,+,97.4,Active,0,LEO,USA,USA,Unknown,Unknown,Unknown,1 58276U 23174W   25274.92776852  .00021913  00000+0  80296-3 0  9994,2 58276  97.3958 348.8576 0008390  33.5192 326.6576 15.27986583105448,15.27986583,0.000839,LEO
58277,TIGER-5,2023,92.96,-1.0,+,97.41,Active,0,LEO,USA,Rwanda,Unknown,Unknown,Unknown,1 58277U 23174X   25275.12687948  .00082190  00000+0  14981-2 0  9996,2 58277  97.4063 358.1005 0004186 355.4148   4.7064 15.49163335106021,15.49163335,0.0004186,LEO
58280,FLOCK 4Q-28,2023,93.57,-1.0,+,97.41,Active,0,LEO,USA,USA,Unknown,Unknown,Unknown,1 58280U 23174AA  25275.16532196  .00044462  00000+0  11463-2 0  9990,2 58280  97.4105 355.7727 0006504  14.8409 345.3026 15.39036378105855,15.39036378,0.0006504,LEO
58281,AETHER-1,2023,93.52,-1.0,+,97.41,Active,0,LEO,USA,Canada,Unknown,Unknown,Unknown,1 58281U 23174AB  25275.13800758  .00066239  00000+0  16536-2 0  9992,2 58281  97.4099 355.1659 0006482   9.9739 350.1635 15.39916417105819,15.39916417,0.0006482,LEO
58282,FLOCK 4Q-27,2023,93.57,-1.0,+,97.4,Active,0,LEO,USA,USA,Unknown,Unknown,Unknown,1 58282U 23174AC  25274.96161815  .00042826  00000+0  11044-2 0  9992,2 58282  97.4051 355.2369 0005643  14.4251 345.7155 15.39041085105834,15.39041085,0.0005643,LEO
58283,FLOCK 4Q-17,2023,93.26,-1.0,+,97.4,Active,0,LEO,USA,USA,Unknown,Unknown,Unknown,1 58283U 23174AD  25275.16966185  .00049107  00000+0  10653-2 0  9993,2 58283  97.4049 357.0391 0005507   4.3594 355.7701 15.44229232105975,15.44229232,0.0005507,LEO
58284,FLOCK 4Q-26,2023,93.49,-1.0,+,97.41,Active,0,LEO,USA,USA,Unknown,Unknown,Unknown,1 58284U 23174AE  25274.70365983  .00041905  00000+0  10366-2 0  9991,2 58284  97.4102 355.9258 0006980  15.0821 345.0632 15.40311346105826,15.40311346,0.000698,LEO
58285,FLOCK 4Q-31,2023,93.54,-1.0,+,97.41,Active,0,LEO,USA,USA,Unknown,Unknown,Unknown,1 58285U 23174AF  25274.79792955  .00042394  00000+0  10789-2 0  9996,2 58285  97.4140 355.7404 0007481  13.6845 346.4602 15.39438217105802,15.39438217,0.0007481,LEO
58286,FLOCK 4Q-30,2023,93.53,-1.0,+,97.41,Active,0,LEO,USA,USA,Unknown,Unknown,Unknown,1 58286U 23174AG  25275.19109334  .00042533  00000+0  10764-2 0  9993,2 58286  97.4138 356.2781 0007083   9.4065 350.7312 15.39610556105870,15.39610556,0.0007083,LEO
58287,PICO-01B009,2023,93.23,-1.0,+,97.4,Active,0,LEO,USA,Italy,Unknown,Unknown,Unknown,1 58287U 23174AH  25275.18540512  .00055443  00000+0  11867-2 0  9999,2 58287  97.4034 356.7191 0005042 354.4408   5.6783 15.44597391105957,15.44597391,0.0005042,LEO
58288,ICEYE-X31,2023,94.46,-1.0,+,97.41,Active,0,LEO,USA,Finland,Unknown,Unknown,Unknown,1 58288U 23174AJ  25275.20568645  .00056747  00000+0  22907-2 0  9995,2 58288  97.4075 347.4025 0003845 144.7687 215.3805 15.24568117105311,15.24568117,0.0003845,LEO
58291,FALCONSAT-10,2023,94.47,-1.0,+,97.41,Active,0,LEO,USA,USA,Unknown,Unknown,Unknown,1 58291U 23174AM  25275.16448794  .00011678  00000+0  47975-3 0  9993,2 58291  97.4092 348.9746 0009585  27.1668 333.0069 15.24308815105418,15.24308815,0.0009585,LEO
58292,UMBRA-08,2023,93.11,-1.0,+,97.4,Active,0,LEO,USA,USA,Unknown,Unknown,Unknown,1 58292U 23174AN  25275.18933751  .00180799  00000+0  35123-2 0  9990,2 58292  97.3964 351.5118 0002531 222.5574 137.5480 15.46947718105611,15.46947718,0.0002531,LEO
58294,ICEYE-X34,2023,93.65,-1.0,+,97.41,Active,0,LEO,USA,USA,Unknown,Unknown,Unknown,1 58294U 23174AQ  25274.95215795  .00047750  00000+0  12835-2 0  9991,2 58294  97.4104 354.4920 0006793   9.6232 350.5141 15.37731480105755,15.3773148,0.0006793,LEO
58295,SPACEVAN-001,2023,92.63,-1.0,+,97.41,Active,0,LEO,USA,France,Unknown,Unknown,Unknown,1 58295U 23174AR  25273.06262704  .00000944  00000+0  15837-4 0  9996,2 58295  97.4073 355.5239 0008866   5.5217 354.6133 15.54565255105678,15.54565255,0.0008866,LEO
58296,PELICAN-3001,2023,93.04,-1.0,+,97.42,Active,0,LEO,USA,USA,Unknown,Unknown,Unknown,1 58296U 23174AS  25274.99100477  .00067941  00000+0  12983-2 0  9995,2 58296  97.4160 359.1586 0010446 149.1873 210.9992 15.47813242105908,15.47813242,0.0010446,LEO
58297,UMBRA-07,2023,95.83,-1.0,+,97.42,Active,0,LEO,USA,USA,Unknown,Unknown,Unknown,1 58297U 23174AT  25275.14944606  .00023525  00000+0  17626-2 0  9993,2 58297  97.4159 336.2611 0002513 211.1920 148.9156 15.02685077104579,15.02685077,0.0002513,LEO
58298,SPIP,2023,94.46,-1.0,+,97.41,Active,0,LEO,USA,Belgium,Unknown,Unknown,Unknown,1 58298U 23174AU  25275.22867975  .00021041  00000+0  85666-3 0  9997,2 58298  97.4119 349.3603 0010347  26.1078 334.0680 15.24470630105431,15.2447063,0.0010347,LEO
58299,AETHER-2,2023,94.11,-1.0,+,97.41,Active,0,LEO,USA,Canada,Unknown,Unknown,Unknown,1 58299U 23174AV  25275.17594684  .00014488  00000+0  49935-3 0  9992,2 58299  97.4124 353.4667 0007636   2.3174 357.8101 15.30086405105716,15.30086405,0.0007636,LEO
58300,ION SCV-013,2023,96.03,-1.0,+,97.67,Active,0,LEO,USA,Italy,Unknown,Unknown,Unknown,1 58300U 23174AW  25273.53645969  .00006465  00000+0  49351-3 0  9994,2 58300  97.6697 326.7585 0084238 355.6282   4.4196 14.99512872102492,14.99512872,0.0084238,LEO
58301,IMPULSE-1 MIRA,2023,94.28,-1.0,+,97.54,Active,0,LEO,USA,USA,Unknown,Unknown,Unknown,1 58301U 23174AX  25275.17735164  .00021980  00000+0  73739-3 0  9990,2 58301  97.5432 351.5631 0085476 318.0377  41.4332 15.27378398105402,15.27378398,0.0085476,LEO
58302,ICEYE-X35,2023,93.92,-1.0,+,97.41,Active,0,LEO,USA,Finland,Unknown,Unknown,Unknown,1 58302U 23174AY  25275.16955277  .00044889  00000+0  13912-2 0  9998,2 58302  97.4051 351.2013 0013097  49.7589 310.4796 15.33211048105579,15.33211048,0.0013097,LEO
58303,FLOCK 4Q-25,2023,93.36,-1.0,+,97.4,Active,0,LEO,USA,USA,Unknown,Unknown,Unknown,1 58303U 23174AZ  25275.13843147  .00057076  00000+0  13107-2 0  9996,2 58303  97.4045 356.2816 0005627 356.6833   3.4376 15.42491538105927,15.42491538,0.0005627,LEO
58304,FLOCK 4Q-29,2023,93.56,-1.0,+,97.41,Active,0,LEO,USA,USA,Unknown,Unknown,Unknown,1 58304U 23174BA  25274.95928524  .00045486  00000+0  11655-2 0  9997,2 58304  97.4136 355.8103 0007091   0.2752 359.8496 15.39216548105824,15.39216548,0.0007091,LEO
58306,FLOCK 4Q-22,2023,93.46,-1.0,+,97.4,Active,0,LEO,USA,USA,Unknown,Unknown,Unknown,1 58306U 23174BC  25274.47496364  .00043432  00000+0  10605-2 0  9991,2 58306  97.4039 355.2160 0006339 359.8104   0.3139 15.40702176105790,15.40702176,0.0006339,LEO
