OBJECT_NAME,OBJECT_ID,EPOCH,MEAN_MOTION,ECCENTRICITY,INCLINATION,RA_OF_ASC_NODE,ARG_OF_PERICENTER,MEAN_ANOMALY,EPHEMERIS_TYPE,CLASSIFICATION_TYPE,NORAD_CAT_ID,ELEMENT_SET_NO,REV_AT_EPOCH,BSTAR,MEAN_MOTION_DOT,MEAN_MOTION_DDOT
FLOCK 4Q-16,2023-174R,2025-10-01T22:53:51.057024,15.36534502,0.0008092,97.4066,354.192,24.9317,335.2316,0,U,58271,999,10575,0.0010096,0.0003608,0.0
TIGER-6,2023-174S,2025-10-02T04:09:54.432288,15.46603568,0.0004088,97.4101,357.5654,5.1149,355.0141,0,U,58272,999,10598,0.0011164,0.00055838,0.0
FLOCK 4Q-11,2023-174T,2025-10-02T02:59:21.889824,15.36797484,0.0007447,97.4099,354.6875,21.5605,338.5952,0,U,58273,999,10578,0.0009627,0.0003468,0.0
FLOCK 4Q-36,2023-174U,2025-10-01T18:07:48.767520,15.40410317,0.00066834,97.4094,355.8076,15.2098,344.9348,0,U,58274,999,10582,0.001060156,0.00043003,0.0
FLOCK 4Q-12,2023-174V,2025-10-02T03:15:55.807776,15.40650499,0.0006338,97.4066,356.1646,13.2163,346.9248,0,U,58275,999,10590,0.0010651,0.00043548,0.0
GENMAT-1,2023-174W,2025-10-01T22:15:59.200128,15.27986583,0.000839,97.3958,348.8576,33.5192,326.6576,0,U,58276,999,10544,0.00080296,0.00021913,0.0
TIGER-5,2023-174X,2025-10-02T03:02:42.387072,15.49163335,0.0004186,97.4063,358.1005,355.4148,4.7064,0,U,58277,999,10602,0.0014981,0.0008219,0.0
FLOCK 4Q-28,2023-174AA,2025-10-02T03:58:03.817344,15.39036378,0.0006504,97.4105,355.7727,14.8409,345.3026,0,U,58280,999,10585,0.0011463,0.00044462,0.0
AETHER-1,2023-174AB,2025-10-02T03:18:43.854912,15.39916417,0.0006482,97.4099,355.1659,9.9739,350.1635,0,U,58281,999,10581,0.0016536,0.00066239,0.0
FLOCK 4Q-27,2023-174AC,2025-10-01T23:04:43.808160,15.39041085,0.0005643,97.4051,355.2369,14.4251,345.7155,0,U,58282,999,10583,0.0011044,0.00042826,0.0
FLOCK 4Q-17,2023-174AD,2025-10-02T04:04:18.783840,15.44229232,0.0005507,97.4049,357.0391,4.3594,355.7701,0,U,58283,999,10597,0.0010653,0.00049107,0.0
FLOCK 4Q-26,2023-174AE,2025-10-01T16:53:16.209312,15.40311346,0.00069801,97.4102,355.9258,15.0821,345.0632,0,U,58284,999,10582,0.001036586,0.00041905,0.0
FLOCK 4Q-31,2023-174AF,2025-10-01T19:09:01.113120,15.39438217,0.0007481,97.414,355.7404,13.6845,346.4602,0,U,58285,999,10580,0.0010788752,0.00042394,0.0
FLOCK 4Q-30,2023-174AG,2025-10-02T04:35:10.464576,15.39610556,0.0007083,97.4138,356.2781,9.4065,350.7312,0,U,58286,999,10587,0.0010764,0.00042533,0.0
PICO-01B009,2023-174AH,2025-10-02T04:26:59.002368,15.44597391,0.0005042,97.4034,356.7191,354.4408,5.6783,0,U,58287,999,10595,0.0011867,0.00055443,0.0
ICEYE-X31,2023-174AJ,2025-10-02T04:56:11.309280,15.24568117,0.0003845,97.4075,347.4025,144.7687,215.3805,0,U,58288,999,10531,0.0022907,0.00056747,0.0
FALCONSAT-10,2023-174AM,2025-10-02T03:56:51.758016,15.24308815,0.0009585,97.4092,348.9746,27.1668,333.0069,0,U,58291,999,10541,0.00047975,0.00011678,0.0
UMBRA-08,2023-174AN,2025-10-02T04:32:38.760864,15.46947718,0.0002531,97.3964,351.5118,222.5574,137.548,0,U,58292,999,10561,0.0035123,0.00180799,0.0
ICEYE-X34,2023-174AQ,2025-10-01T22:51:06.446880,15.3773148,0.0006793,97.4104,354.492,9.6232,350.5141,0,U,58294,999,10575,0.0012835,0.0004775,0.0
SPACEVAN-001,2023-174AR,2025-09-30T01:30:10.976256,15.54565255,0.00088663,97.4073,355.5239,5.5217,354.6133,0,U,58295,999,10567,1.5837437e-05,9.44e-06,0.0
PELICAN-3001,2023-174AS,2025-10-01T23:47:02.812128,15.47813242,0.0010446,97.416,359.1586,149.1873,210.9992,0,U,58296,999,10590,0.0012983,0.00067941,0.0
UMBRA-07,2023-174AT,2025-10-02T03:35:12.139584,15.02685077,0.0002513,97.4159,336.2611,211.192,148.9156,0,U,58297,999,10457,0.0017626,0.00023525,0.0
SPIP,2023-174AU,2025-10-02T05:29:17.930400,15.2447063,0.0010347,97.4119,349.3603,26.1078,334.068,0,U,58298,999,10543,0.00085666,0.00021041,0.0
AETHER-2,2023-174AV,2025-10-02T04:13:21.806976,15.30086405,0.0007636,97.4124,353.4667,2.3174,357.8101,0,U,58299,999,10571,0.00049935,0.00014488,0.0
ION SCV-013,2023-174AW,2025-09-30T12:52:30.117216,14.99512872,0.0084238,97.6697,326.7585,355.6282,4.4196,0,U,58300,999,10249,0.00049351,6.465e-05,0.0
IMPULSE-1 MIRA,2023-174AX,2025-10-02T04:15:23.181696,15.27378398,0.0085476,97.5432,351.5631,318.0377,41.4332,0,U,58301,999,10540,0.00073739,0.0002198,0.0
ICEYE-X35,2023-174AY,2025-10-02T04:04:09.359328,15.33211048,0.0013097,97.4051,351.2013,49.7589,310.4796,0,U,58302,999,10557,0.0013912,0.00044889,0.0
FLOCK 4Q-25,2023-174AZ,2025-10-02T03:19:20.479008,15.42491538,0.0005627,97.4045,356.2816,356.6833,3.4376,0,U,58303,999,10592,0.0013107,0.00057076,0.0
FLOCK 4Q-29,2023-174BA,2025-10-01T23:01:22.244736,15.39216548,0.0007091,97.4136,355.8103,0.2752,359.8496,0,U,58304,999,10582,0.0011655,0.00045486,0.0
FLOCK 4Q-22,2023-174BC,2025-10-01T11:23:56.858496,15.40702176,0.0006339,97.4039,355.216,359.8104,0.3139,0,U,58306,999,10579,0.0010605106,0.00043432,0.0
